STARLINK-34378          
1 64299U 25123J   25168.16667824  .00009736  00000+0  55868+0 0  9990
2 64299  43.0319  49.6774 0008695   8.7795 249.4520 10.66936355  1352
STARLINK-34376          
1 64300U 25123K   25168.16667824  .00018114  00000+0  23349+0 0  9992
2 64300  43.0089  49.6957 0014333   0.5677 198.3292 11.96782731  1345
STARLINK-34372          
1 64301U 25123L   25168.16667824  .00014144  00000+0  34100+0 0  9999
2 64301  43.0035  49.6689 0007539  76.8218 262.4082 11.44214287  1356
STARLINK-34379          
1 64302U 25123M   25168.16667824  .00016177  00000+0  32824+0 0  9999
2 64302  43.0178  49.6680 0012593  21.6370 196.6147 11.58951618  1350
STARLINK-34356          
1 64303U 25123N   25168.08335648  .00026524  00000+0  45831-1 0  9998
2 64303  42.9937  50.1254 0001254 146.9031 105.0371 13.43672952  1353
STARLINK-34360          
1 64304U 25123P   25167.83335648 -.00015995  00000+0 -20714+0 0  9994
2 64304  42.9950  50.7592 0002519 144.3691 299.5336 11.96057532  1312
STARLINK-34383          
1 64305U 25123Q   25167.75002315 -.00015829  00000+0 -26886-1 0  9992
2 64305  43.0248  51.2672 0011638 196.1229 293.6879 13.44424785  1291
STARLINK-34355          
1 64306U 25123R   25167.83335648 -.00015425  00000+0 -22398+0 0  9994
2 64306  43.0140  50.6500 0005899 265.4189   2.7791 11.86638807  1303
STARLINK-34380          
1 64307U 25123S   25167.75002315 -.00010173  00000+0 -73592-1 0  9997
2 64307  42.9999  51.1527 0002437 246.9232  58.1354 12.42009740  1296
STARLINK-34374          
1 64308U 25123T   25167.75002315 -.00127748  00000+0 -33365+0 0  9997
2 64308  42.9944  51.1872 0007316 285.2932 251.9191 13.17228516  1293
STARLINK-34370          
1 64309U 25123U   25167.75002315 -.00033636  00000+0 -60224-1 0  9996
2 64309  42.9734  51.0819 0007326 316.2742 196.2030 13.41397763  1297
STARLINK-34357          
1 64310U 25123V   25167.75002315 -.00012051  00000+0 -14052-1 0  9994
2 64310  42.9812  51.1448 0010002 307.5750 212.7982 13.67715346  1303
STARLINK-34368          
1 64311U 25123W   25167.83335648 -.00016175  00000+0 -34334+0 0  9996
2 64311  43.0354  50.5440 0009574  11.8798  66.6132 11.54751672  1311
STARLINK-34384          
1 64312U 25123X   25167.75002315 -.00006005  00000+0 -13175+0 0  9991
2 64312  42.9926  50.9731 0000802 210.8376  79.1716 11.51355552  1300
STARLINK-34358          
1 64313U 25123Y   25167.75002315 -.00008385  00000+0 -24661+0 0  9997
2 64313  42.9928  50.9842 0001684 170.6793  93.2989 11.26210736  1294
STARLINK-34354          
1 64314U 25123Z   25167.75002315 -.00009741  00000+0 -21189+0 0  9997
2 64314  42.9802  50.9306 0005884 288.4999 224.7569 11.52420884  1306
STARLINK-34387          
1 64315U 25123AA  25167.66667824  .00119501  00000+0  24045+0 0  9998
2 64315  40.2975  59.5335 0049965   1.6295 343.8839 13.32410326  1288
STARLINK-33590          
1 64316U 25123AB  25167.75002315 -.00006537  00000+0 -40355+0 0  9995
2 64316  43.0292  50.8141 0007970 328.1692 125.6579 10.59358035  1303
STARLINK-11736 [DTC]    
1 64317U 25124A   25169.58335648 -.00966780  00000+0 -45374-2 0  9992
2 64317  43.0038 183.0119 0001458 299.9666 173.5353 15.84575359  2381
STARLINK-11673 [DTC]    
1 64318U 25124B   25169.58335648 -.00104177  00000+0 -43582-3 0  9997
2 64318  43.0037 183.0070 0001692 299.2340 176.2200 15.84823382  2449
STARLINK-11671 [DTC]    
1 64319U 25124C   25169.58335648 -.00025872  00000+0 -10584-3 0  9998
2 64319  43.0036 183.0012 0001437 291.4932 186.2143 15.84763227  2384
STARLINK-11594 [DTC]    
1 64320U 25124D   25169.58335648  .00053703  00000+0  22509-3 0  9992
2 64320  43.0037 182.9952 0001610 291.0402 189.0485 15.84737659  2288
STARLINK-11596 [DTC]    
1 64321U 25124E   25169.58335648  .00086849  00000+0  36162-3 0  9990
2 64321  43.0038 182.9894 0001858 303.5717 178.8476 15.84713662  2292
STARLINK-11747 [DTC]    
1 64322U 25124F   25169.58335648 -.00011321  00000+0 -44901-4 0  9997
2 64322  43.0038 182.9833 0001360 290.7311 194.1841 15.84774770  2442
STARLINK-11728 [DTC]    
1 64323U 25124G   25169.58335648 -.00052464  00000+0 -21773-3 0  9992
2 64323  43.0037 182.9776 0001664 285.7931 201.3452 15.84757384  2213
STARLINK-11696 [DTC]    
1 64324U 25124H   25169.58335648  .00081904  00000+0  34114-3 0  9995
2 64324  43.0038 182.9704 0001530 283.9794 206.0296 15.84727405  2382
STARLINK-11698 [DTC]    
1 64325U 25124J   25169.58335648  .00057746  00000+0  24174-3 0  9998
2 64325  43.0041 182.9654 0001408 296.3736 195.7203 15.84738741  2386
STARLINK-11678 [DTC]    
1 64326U 25124K   25169.58335648  .00032254  00000+0  13644-3 0  9996
2 64326  43.0040 182.9581 0001174 300.7112 194.2272 15.84739188  2211
STARLINK-11674 [DTC]    
1 64327U 25124L   25169.58335648  .00083295  00000+0  34684-3 0  9995
2 64327  43.0040 182.9524 0001495 289.9938 207.1898 15.84727466  2381
STARLINK-11707 [DTC]    
1 64328U 25124M   25169.58335648 -.00153043  00000+0 -64432-3 0  9991
2 64328  43.0041 182.9458 0001301 288.3133 211.5616 15.84844136  2386
STARLINK-11734 [DTC]    
1 64329U 25124N   25169.58335648  .00206949  00000+0  84965-3 0  9997
2 64329  43.0039 182.9385 0001710 280.4616 222.2958 15.84642561  2292
STARLINK-34352          
1 64330U 25124P   25169.58335648 -.00883683  00000+0 -40333-2 0  9997
2 64330  43.0034 182.9143 0001483 287.5544 224.4793 15.84947384  2399
STARLINK-34050          
1 64331U 25124Q   25169.58335648 -.00889129  00000+0 -40526-2 0  9993
2 64331  43.0036 182.9100 0001469 288.4027 225.4336 15.84988756  2342
STARLINK-33782          
1 64332U 25124R   25169.58335648 -.00897765  00000+0 -40877-2 0  9998
2 64332  43.0035 182.9043 0001460 287.6410 228.3339 15.85030972  2294
STARLINK-34207          
1 64333U 25124S   25169.58335648 -.00904583  00000+0 -41136-2 0  9995
2 64333  43.0035 182.8993 0001419 289.0906 228.8524 15.85073413  2296
STARLINK-34260          
1 64334U 25124T   25169.58335648 -.00911320  00000+0 -41398-2 0  9993
2 64334  43.0034 182.8937 0001372 287.5995 232.6522 15.85112063  2390
STARLINK-33855          
1 64335U 25124U   25169.58335648 -.00921282  00000+0 -41811-2 0  9992
2 64335  43.0036 182.8888 0001387 288.0571 234.1461 15.85155289  2295
STARLINK-34223          
1 64336U 25124V   25169.58335648 -.00953140  00000+0 -43070-2 0  9990
2 64336  43.0033 182.8675 0001335 286.7189 243.8462 15.85321290  2396
STARLINK-34216          
1 64337U 25124W   25169.58335648 -.00938748  00000+0 -42520-2 0  9997
2 64337  43.0034 182.8776 0001364 285.5094 240.9676 15.85237897  2398
STARLINK-34218          
1 64338U 25124X   25169.58335648 -.00915755  00000+0 -41480-2 0  9995
2 64338  43.0034 182.8836 0001300 291.2379 233.0547 15.85182352  2504
STARLINK-34017          
1 64339U 25124Y   25169.58335648 -.00981705  00000+0 -44519-2 0  9990
2 64339  43.0032 182.8724 0001749 280.5862 247.9309 15.85313376  2506
QPS-SAR-11 (YAMATSUMI-I)
1 64340U 25125A   25169.60802253  .00003567  00000+0  31911-3 0  9999
2 64340  42.0100  29.4532 0008668 312.6991  47.3103 14.97117371  1044
ELECTRON KICK STAGE R/B 
1 64341U 25125B   25169.32398907  .00132393  11014-4  10219-2 0  9994
2 64341  42.0116  28.1150 0213912 316.1433  42.2599 15.46839716  1035
ELECTRON R/B            
1 64342U 25125C   25169.59473370  .00298442  30822-4  80308-3 0  9995
2 64342  42.0249  25.8044 0240340 285.4621  71.9803 15.59777509  1077
ZHANGHENG 1-02 (CSES-2) 
1 64393U 25128A   25169.71142034  .00007031  00000+0  30345-3 0  9996
2 64393  97.3159 300.9013 0010268 253.9250 106.0856 15.22779906   677
